[{"OBJECT_NAME":"TIANQI-39","OBJECT_ID":"2026-010C","EPOCH":"2026-03-08T16:50:36.580128","MEAN_MOTION":14.04334884,"ECCENTRICITY":0.00155129,"INCLINATION":44.9813,"RA_OF_ASC_NODE":168.7554,"ARG_OF_PERICENTER":221.5775,"MEAN_ANOMALY":138.3881,"EPHEMERIS_TYPE":0,"CLASSIFICATION_TYPE":"U","NORAD_CAT_ID":67478,"ELEMENT_SET_NO":999,"REV_AT_EPOCH":732,"BSTAR":0.00014701681,"MEAN_MOTION_DOT":1.06e-6,"MEAN_MOTION_DDOT":0},{"OBJECT_NAME":"COSMOS 1275 DEB","OBJECT_ID":"1981-053KW","EPOCH":"2026-03-09T23:12:44.376192","MEAN_MOTION":14.00620347,"ECCENTRICITY":0.00472159,"INCLINATION":82.9196,"RA_OF_ASC_NODE":72.2228,"ARG_OF_PERICENTER":358.96,"MEAN_ANOMALY":1.1464,"EPHEMERIS_TYPE":0,"CLASSIFICATION_TYPE":"U","NORAD_CAT_ID":17627,"ELEMENT_SET_NO":999,"REV_AT_EPOCH":7173,"BSTAR":0.0011476656,"MEAN_MOTION_DOT":1.738e-5,"MEAN_MOTION_DDOT":0}]
